[Satellite]
VERSION=1.1
NAME=SPIRALE B
NICKNAME=SPIRALE B
TLE1=1 33752U 09008D   15053.92673932  .00021258  00000-0  30119-2 0  9996
TLE2=2 33752   2.0727  58.8062 7053923 275.0103  15.0261  2.58591823 52416
